[{"OBJECT_NAME":"QIANFAN-23","OBJECT_ID":"2024-185E","EPOCH":"2026-03-09T22:52:44.891904","MEAN_MOTION":14.16398048,"ECCENTRICITY":0.00092256,"INCLINATION":88.9755,"RA_OF_ASC_NODE":67.6947,"ARG_OF_PERICENTER":47.6437,"MEAN_ANOMALY":312.5531,"EPHEMERIS_TYPE":0,"CLASSIFICATION_TYPE":"U","NORAD_CAT_ID":61556,"ELEMENT_SET_NO":999,"REV_AT_EPOCH":8209,"BSTAR":0.00033141265,"MEAN_MOTION_DOT":6.72e-6,"MEAN_MOTION_DDOT":0},{"OBJECT_NAME":"FENGYUN 1C DEB","OBJECT_ID":"1999-025EEY","EPOCH":"2026-02-24T16:09:40.217760","MEAN_MOTION":14.17090967,"ECCENTRICITY":0.01060624,"INCLINATION":98.9033,"RA_OF_ASC_NODE":212.8625,"ARG_OF_PERICENTER":249.1829,"MEAN_ANOMALY":109.7959,"EPHEMERIS_TYPE":0,"CLASSIFICATION_TYPE":"U","NORAD_CAT_ID":37064,"ELEMENT_SET_NO":999,"REV_AT_EPOCH":82582,"BSTAR":0.0033543305,"MEAN_MOTION_DOT":7.096e-5,"MEAN_MOTION_DDOT":0}]
